API VERSION: 1.2
API SOURCE: NASA/JPL Horizons API



*******************************************************************************
Ephemeris / API_USER Sun Dec 22 21:40:10 2024 Pasadena, USA      / Horizons
*******************************************************************************
Target body name: Mars Barycenter (4)             {source: DE441}
Center body name: Solar System Barycenter (0)     {source: DE441}
Center-site name: BODY CENTER
*******************************************************************************
Start time      : A.D. 2001-Oct-10 00:00:00.0000 TDB
Stop  time      : A.D. 2001-Dec-31 00:00:00.0000 TDB
Step-size       : 1440 minutes
*******************************************************************************
Center geodetic : 0.0, 0.0, 0.0                   {E-lon(deg),Lat(deg),Alt(km)}
Center cylindric: 0.0, 0.0, 0.0                   {E-lon(deg),Dxy(km),Dz(km)}
Center radii    : (undefined)
Output units    : KM-S
Calendar mode   : Mixed Julian/Gregorian
Output type     : GEOMETRIC cartesian states
Output format   : 2 (position and velocity)
Reference frame : Ecliptic of J2000.0
*******************************************************************************
            JDTDB,            Calendar Date (TDB),                      X,                      Y,                      Z,                     VX,                     VY,                     VZ,
**************************************************************************************************************************************************************************************************
$$SOE
2452235.500000000, A.D. 2001-Nov-22 00:00:00.0000,  2.079842382141246E+08,  5.237488886778524E+06, -4.977505699722782E+06,  2.424448040116529E-01,  2.628574912503162E+01,  5.446460142514074E-01,
2452236.500000000, A.D. 2001-Nov-23 00:00:00.0000,  2.079937937426814E+08,  7.508204747844089E+06, -4.930176156356111E+06, -2.119959708515037E-02,  2.627664084658253E+01,  5.509339833249918E-01,
2452237.500000000, A.D. 2001-Nov-24 00:00:00.0000,  2.079805844927047E+08,  9.778010089963075E+06, -4.882306267301776E+06, -2.845117502212148E-01,  2.626467372777363E+01,  5.571539009493556E-01,
2452238.500000000, A.D. 2001-Nov-25 00:00:00.0000,  2.079446406994943E+08,  1.204665828754983E+07, -4.833901941861226E+06, -5.474562982496760E-01,  2.624985661045645E+01,  5.633050833910840E-01,
2452239.500000000, A.D. 2001-Nov-26 00:00:00.0000,  2.078859956431931E+08,  1.431390350134246E+07, -4.784969147695456E+06, -8.099981173457681E-01,  2.623219885365303E+01,  5.693868634831087E-01,
2452240.500000000, A.D. 2001-Nov-27 00:00:00.0000,  2.078046856282381E+08,  1.657950072280764E+07, -4.735513909389908E+06, -1.072102326023394E+00,  2.621171032707379E+01,  5.753985907105612E-01,
2452241.500000000, A.D. 2001-Nov-28 00:00:00.0000,  2.077007499620392E+08,  1.884320581797754E+07, -4.685542307012326E+06, -1.333734293954561E+00,  2.618840140445469E+01,  5.813396312878201E-01,
2452242.500000000, A.D. 2001-Nov-29 00:00:00.0000,  2.075742309329056E+08,  2.110477557070354E+07, -4.635060474664321E+06, -1.594859650591359E+00,  2.616228295672191E+01,  5.872093682274340E-01,
2452243.500000000, A.D. 2001-Nov-30 00:00:00.0000,  2.074251737872355E+08,  2.336396772531223E+07, -4.584074599027347E+06, -1.855444293579561E+00,  2.613336634499117E+01,  5.930072014001109E-01,
2452244.500000000, A.D. 2001-Dec-01 00:00:00.0000,  2.072536267059885E+08,  2.562054102864945E+07, -4.532590917903861E+06, -2.115454396970354E+00,  2.610166341340386E+01,  5.987325475865450E-01,
2452245.500000000, A.D. 2001-Dec-02 00:00:00.0000,  2.070596407804564E+08,  2.787425527149874E+07, -4.480615718754366E+06, -2.374856419219235E+00,  2.606718648181154E+01,  6.043848405207424E-01,
2452246.500000000, A.D. 2001-Dec-03 00:00:00.0000,  2.068432699873535E+08,  3.012487132936137E+07, -4.428155337231074E+06, -2.633617110972053E+00,  2.602994833831362E+01,  6.099635309250893E-01,
2452247.500000000, A.D. 2001-Dec-04 00:00:00.0000,  2.066045711632419E+08,  3.237215120258549E+07, -4.375216155708883E+06, -2.891703522635412E+00,  2.598996223165491E+01,  6.154680865371223E-01,
2452248.500000000, A.D. 2001-Dec-05 00:00:00.0000,  2.063436039783138E+08,  3.461585805583269E+07, -4.321804601814425E+06, -3.149083011728957E+00,  2.594724186349001E+01,  6.208979921282349E-01,
2452249.500000000, A.D. 2001-Dec-06 00:00:00.0000,  2.060604309095466E+08,  3.685575625687063E+07, -4.267927146953801E+06, -3.405723250017300E+00,  2.590180138052141E+01,  6.262527495142471E-01,
2452250.500000000, A.D. 2001-Dec-07 00:00:00.0000,  2.057551172132527E+08,  3.909161141468117E+07, -4.213590304839781E+06, -3.661592230419566E+00,  2.585365536651803E+01,  6.315318775580447E-01,
2452251.500000000, A.D. 2001-Dec-08 00:00:00.0000,  2.054277308970404E+08,  4.132319041687414E+07, -4.158800630019117E+06, -3.916658273694845E+00,  2.580281883422123E+01,  6.367349121643429E-01,
2452252.500000000, A.D. 2001-Dec-09 00:00:00.0000,  2.050783426912087E+08,  4.355026146639697E+07, -4.103564716400625E+06, -4.170890034901960E+00,  2.574930721714508E+01,  6.418614062666990E-01,
2452253.500000000, A.D. 2001-Dec-10 00:00:00.0000,  2.047070260195926E+08,  4.577259411753169E+07, -4.047889195784722E+06, -4.424256509632334E+00,  2.569313636127775E+01,  6.469109298068680E-01,
2452254.500000000, A.D. 2001-Dec-11 00:00:00.0000,  2.043138569698797E+08,  4.798995931117085E+07, -3.991780736395108E+06, -4.676727040014836E+00,  2.563432251669080E+01,  6.518830697066313E-01,
2452255.500000000, A.D. 2001-Dec-12 00:00:00.0000,  2.038989142634188E+08,  5.020212940936472E+07, -3.935246041413141E+06, -4.928271320491802E+00,  2.557288232906336E+01,  6.567774298322249E-01,
2452256.500000000, A.D. 2001-Dec-13 00:00:00.0000,  2.034622792245384E+08,  5.240887822913282E+07, -3.878291847515661E+06, -5.178859403365599E+00,  2.550883283112769E+01,  6.615936309514723E-01,
2452257.500000000, A.D. 2001-Dec-14 00:00:00.0000,  2.030040357493960E+08,  5.460998107553314E+07, -3.820924923416791E+06, -5.428461704115321E+00,  2.544219143404320E+01,  6.663313106837734E-01,
2452258.500000000, A.D. 2001-Dec-15 00:00:00.0000,  2.025242702743788E+08,  5.680521477398323E+07, -3.763152068414386E+06, -5.677049006483429E+00,  2.537297591870529E+01,  6.709901234431097E-01,
2452259.500000000, A.D. 2001-Dec-16 00:00:00.0000,  2.020230717440741E+08,  5.899435770182782E+07, -3.704980110941675E+06, -5.924592467332356E+00,  2.530120442699602E+01,  6.755697403741312E-01,
2452260.500000000, A.D. 2001-Dec-17 00:00:00.0000,  2.015005315788297E+08,  6.117718981914818E+07, -3.646415907124739E+06, -6.171063621271260E+00,  2.522689545298283E+01,  6.800698492815442E-01,
2452261.500000000, A.D. 2001-Dec-18 00:00:00.0000,  2.009567436419258E+08,  6.335349269880912E+07, -3.587466339346383E+06, -6.416434385053368E+00,  2.515006783407211E+01,  6.844901545529094E-01,
2452262.500000000, A.D. 2001-Dec-19 00:00:00.0000,  2.003918042063754E+08,  6.552304955573984E+07, -3.528138314816926E+06, -6.660677061744495E+00,  2.507074074212402E+01,  6.888303770750355E-01,
2452263.500000000, A.D. 2001-Dec-20 00:00:00.0000,  1.998058119213752E+08,  6.768564527544576E+07, -3.468438764152523E+06, -6.903764344663521E+00,  2.498893367453487E+01,  6.930902541440602E-01,
2452264.500000000, A.D. 2001-Dec-21 00:00:00.0000,  1.991988677784259E+08,  6.984106644174856E+07, -3.408374639961496E+06, -7.145669321095832E+00,  2.490466644529345E+01,  6.972695393694330E-01,
2452265.500000000, A.D. 2001-Dec-22 00:00:00.0000,  1.985710750771409E+08,  7.198910136375277E+07, -3.347952915439203E+06, -7.386365475780830E+00,  2.481795917601750E+01,  7.013680025719733E-01,
2452266.500000000, A.D. 2001-Dec-23 00:00:00.0000,  1.979225393907638E+08,  7.412954010203706E+07, -3.287180582972042E+06, -7.625826694174902E+00,  2.472883228697645E+01,  7.053854296760722E-01,
2452267.500000000, A.D. 2001-Dec-24 00:00:00.0000,  1.972533685314136E+08,  7.626217449406977E+07, -3.226064652750917E+06, -7.864027265491278E+00,  2.463730648810644E+01,  7.093216225963133E-01,
2452268.500000000, A.D. 2001-Dec-25 00:00:00.0000,  1.965636725150769E+08,  7.838679817884770E+07, -3.164612151394781E+06, -8.100941885518528E+00,  2.454340277002352E+01,  7.131763991186322E-01,
2452269.500000000, A.D. 2001-Dec-26 00:00:00.0000,  1.958535635263654E+08,  8.050320662075891E+07, -3.102830120584715E+06, -8.336545659219437E+00,  2.444714239504095E+01,  7.169495927761567E-01,
2452270.500000000, A.D. 2001-Dec-27 00:00:00.0000,  1.951231558830594E+08,  8.261119713266951E+07, -3.040725615708873E+06, -8.570814103112308E+00,  2.434854688819608E+01,  7.206410527199445E-01,
2452271.500000000, A.D. 2001-Dec-28 00:00:00.0000,  1.943725660004542E+08,  8.471056889823607E+07, -2.978305704518907E+06, -8.803723147436832E+00,  2.424763802829262E+01,  7.242506435847602E-01,
2452272.500000000, A.D. 2001-Dec-29 00:00:00.0000,  1.936019123555283E+08,  8.680112299344456E+07, -2.915577465798091E+06, -9.035249138106748E+00,  2.414443783896345E+01,  7.277782453500894E-01,
2452273.500000000, A.D. 2001-Dec-30 00:00:00.0000,  1.928113154509531E+08,  8.888266240738097E+07, -2.852547988041416E+06, -9.265368838443489E+00,  2.403896857979491E+01,  7.312237532008652E-01,
2452274.500000000, A.D. 2001-Dec-31 00:00:00.0000,  1.920008977789607E+08,  9.095499206222349E+07, -2.789224368149649E+06, -9.494059430726432E+00,  2.393125273728468E+01,  7.345870773575438E-01,
